[{"OBJECT_NAME":"GONETS-M 8","OBJECT_ID":"2014-036A","EPOCH":"2026-03-09T23:06:24.668064","MEAN_MOTION":12.42981523,"ECCENTRICITY":0.00305366,"INCLINATION":82.516,"RA_OF_ASC_NODE":9.2142,"ARG_OF_PERICENTER":7.6012,"MEAN_ANOMALY":352.5524,"EPHEMERIS_TYPE":0,"CLASSIFICATION_TYPE":"U","NORAD_CAT_ID":40061,"ELEMENT_SET_NO":999,"REV_AT_EPOCH":53012,"BSTAR":-0.00041250717,"MEAN_MOTION_DOT":-4.7e-7,"MEAN_MOTION_DDOT":0},{"OBJECT_NAME":"SL-14 R\/B","OBJECT_ID":"1989-068B","EPOCH":"2026-03-09T10:10:16.554144","MEAN_MOTION":12.40773313,"ECCENTRICITY":0.00245556,"INCLINATION":73.5631,"RA_OF_ASC_NODE":67.4016,"ARG_OF_PERICENTER":330.2735,"MEAN_ANOMALY":142.9123,"EPHEMERIS_TYPE":0,"CLASSIFICATION_TYPE":"U","NORAD_CAT_ID":20197,"ELEMENT_SET_NO":999,"REV_AT_EPOCH":65367,"BSTAR":-3.3881905e-5,"MEAN_MOTION_DOT":-2.2e-7,"MEAN_MOTION_DDOT":0}]
